     3.01           N                   R                   RINEX VERSION / TYPE
Convert 2.6.5       NovAtel             20201104 134846 UTC PGM / RUN BY / DATE 
                                                            COMMENT             
                                                            END OF HEADER       
